#dP2024  9 30 12  0  0.00000000      96 __u+U IGS20 EXT  IAC
## 2334 129600.00000000   900.00000000 60583 0.5000000000000
+   54   G01G02G03G04G05G06G07G08G09G10G11G12G13G14G15G16G17
+        G18G19G20G21G22G23G24G25G26G27G28G29G30G31G32R01R02
+        R03R04R05R07R08R09R11R12R14R15R16R17R18R19R20R21R22
+        R24R25R26  0  0  0  0  0  0  0  0  0  0  0  0  0  0
+          0  0  0  0  0  0  0  0  0  0  0  0  0  0  0  0  0
++         6  7  7  7  7  6  7  7  8  7  6  7  7  8  7  8  8
++         7  7  7  8  7  7  8  7  8  7  8  7  7  8  7  8  8
++         7  7  7  8  8 10  9  8  7  8  8  9  8  8 10  6  8
++         9  7  8  0  0  0  0  0  0  0  0  0  0  0  0  0  0
++         0  0  0  0  0  0  0  0  0  0  0  0  0  0  0  0  0
%c M  cc GPS ccc cccc cccc cccc cccc ccccc ccccc ccccc ccccc
%c cc cc ccc ccc cccc cccc cccc cccc ccccc ccccc ccccc ccccc
%f  0.0000000  0.000000000  0.00000000000  0.000000000000000
%f  0.0000000  0.000000000  0.00000000000  0.000000000000000
%i    0    0    0    0      0      0      0      0         0
%i    0    0    0    0      0      0      0      0         0
/* IAC                                ULTRA-RAPID PREDICTION
/* S/V CLOCKS ARE ALIGNED TO GNSS TIME                      
/* G:C1WC2W R:C1PC2P E:C1XC5X C:C2IC6I J:C1CC2S             
/* PCV:IGS20_2317 OL/AL:FES2004  NONE     YN ORB:CoN CLK:CoN
*  2024 09 30 23  0  0.00000000
PG01      0.000000      0.000000      0.000000    183.653002
PG02  -8980.700211 -13484.147539 -20643.082006   -346.866165
PG03 -12710.838597 -23373.612355  -1030.169473    555.636737
PG04  -4428.939639 -17910.263157  19065.614574    453.465305
PG05   1832.885978  21634.388501  15070.795950   -188.324567
PG06 -24529.104125   5497.567760   8812.398230     -6.014241
PG07 -23608.489774  -7522.620376  10691.409226    -32.064509
PG08   3928.601993 -23842.607899 -10623.585024    370.033623
PG09 -12789.453031  -8283.770954  21657.802589    379.081449
PG10  16022.175367   -157.360193 -21036.088278   -142.847172
PG11 -12904.108687  12834.427619  19355.318393   -739.989501
PG12   8790.555969  24740.147338  -4445.204358   -541.904729
PG13 -12998.010540  22472.788823  -5199.938412    679.231424
PG14 -17949.458598  -3662.026467 -19262.518337    507.448183
PG15   -391.687737  24240.926923 -11177.328714    210.426905
PG16   4354.795250 -19130.039439  17348.765675   -166.907494
PG17 -18915.206940   8226.985949 -16410.864567    610.443875
PG18  24148.433053   6601.227267   9230.887510   -656.089506
PG19 -19358.063686  14723.532653 -10297.279313    544.825068
PG20  -6772.448250  14917.947776  21002.535873    370.115001
PG21  -2988.278604 -14777.770237 -21489.405396    100.706991
PG22 -14208.252102   5043.575283 -21447.253901    -66.917529
PG23  18842.808786  12730.755755 -13876.852973    331.793403
PG24   6767.225013  15100.830546 -21280.481801   -485.946747
PG25  17155.300573  19308.500690   6412.039706    499.612989
PG26  12663.209576  -9433.028613  21188.154572     66.719255
PG27  12289.039182 -23273.143295   -911.743288    -34.213591
PG28  25239.149056  -5328.829239   6325.651716   -430.140193
PG29  10328.715264  11275.964919  21664.290969   -574.393324
PG30 -26704.525864   -130.246964    391.209248   -311.233509
PG31  17967.756824 -11088.378669  16103.473292   -224.012220
PG32  18370.502026 -10197.821780 -15909.420694   -591.798533
PR01    500.989480 -24895.449996   5545.814080     99.532784
PR02  -6729.089232 -14926.428608  19570.409608    -24.923432
PR03 -11294.620846   3647.195600  22626.303978    108.573803
PR04  -9539.011375  19532.399907  13387.415873    257.174699
PR05  -2869.501962  25179.706291  -3034.012768    138.452266
PR07  11291.960241  -4114.804442 -22457.506369     91.984059
PR08   9313.473118 -19772.318638 -13064.197852     -6.414966
PR09  19659.821708  16045.925832  -2082.890063    212.099941
PR11  10496.376163  -5397.299060  22622.676852     10.446515
PR12  -7191.375778 -16705.223736  17906.014766     45.470401
PR14 -19986.295855  -6813.106744 -14312.399265     26.998878
PR15  -9193.988819   6699.917838 -22810.200415     75.332479
PR16   7165.844691  16514.185307 -18043.612419     29.583628
PR17 -23793.634222   5416.895031  -7326.288090    126.699624
PR18 -20643.789001  11926.972321   9140.867764    164.668323
PR19  -9137.351810  12542.291828  20244.051942   -293.243676
PR20  12955.653939   5739.091375  21215.012611   -119.815193
PR21  23723.633749  -4815.633200   8104.936790   -138.934910
PR22  20163.453628 -11882.808269 -10110.682033     33.532770
PR24 -13829.594865  -5236.257374 -20755.220210    -74.171403
PR25  24122.920416  -4634.972665   6937.745915    -96.132581
PR26   9650.952266 -18698.542802 -14416.123616     51.955435
*  2024 09 30 23 15  0.00000000
PG01      0.000000      0.000000      0.000000    183.643996
PG02  -6513.362746 -13833.226562 -21283.202883   -346.858868
PG03 -12425.776065 -23241.687335  -3911.058507    555.648072
PG04  -3266.306276 -19656.704416  17502.323909    453.471562
PG05    634.820800  20194.140818  17023.649645   -188.325604
PG06 -25370.680393   5362.266731   6074.555181     -6.038414
PG07 -22344.013204  -7765.675738  13049.650694    -32.061063
PG08   4648.744186 -24680.439507  -8045.181321    370.044665
PG09 -11657.301928 -10491.602745  21333.408442    379.096159
PG10  17236.630408   1888.047410 -20006.049856   -142.858756
PG11 -15026.233147  12687.458295  17854.642567   -739.992678
PG12   8282.217207  24294.618413  -7196.403557   -541.907163
PG13 -13429.518458  22664.532235  -2351.061237    679.233146
PG14 -18921.359261  -5562.013799 -17848.490495    507.455826
PG15  -1014.212037  25168.067252  -8680.869244    210.430927
PG16   5487.605111 -17293.093657  18898.358553   -166.898458
PG17 -17977.336711   6405.471147 -18127.023971    610.432913
PG18  22963.138290   6797.157762  11752.799616   -656.091057
PG19 -18818.107873  13506.836660 -12750.704625    544.829398
PG20  -8438.920771  13162.949008  21553.450017    370.114681
PG21   -459.538379 -15061.488666 -21401.409239    100.706318
PG22 -15312.841287   2774.158823 -21077.647662    -66.920710
PG23  19522.913921  14016.394045 -11520.796000    331.800869
PG24   4425.668493  15444.637174 -21617.477128   -485.946078
PG25  17270.700941  19965.186018   3671.951911    499.612933
PG26  14143.649150  -7465.724205  21071.081138     66.711204
PG27  12505.566253 -23056.671629   1966.868446    -34.213890
PG28  25820.751172  -5122.747284   3542.416735   -430.152231
PG29   8977.640093  13325.289586  21085.268270   -574.390909
PG30 -26529.452385   -440.532236   3171.707779   -311.226928
PG31  19723.298312 -10936.274360  14087.967116   -224.011730
PG32  17623.519053  -8368.787014 -17714.041218   -591.794895
PR01    401.097440 -25396.869317   2382.083488     99.534119
PR02  -6523.893234 -17212.550911  17660.289037    -24.923525
PR03 -10926.485837    861.084061  23075.494739    108.574575
PR04  -9159.860713  17764.293802  15884.346986    257.176261
PR05  -2712.594163  25379.076679    185.590601    138.452823
PR07  10921.273747  -1325.805769 -22976.619586     91.984740
PR08   8970.034712 -18022.009583 -15586.205856     -6.414899
PR09  19336.236853  15715.316484  -5232.361441    212.101888
PR11  12723.982611  -3805.515981  21785.805609     10.445638
PR12  -5378.416179 -15259.655688  19742.083189     45.470940
PR14 -21339.713676  -7681.090661 -11681.399385     26.999030
PR15 -11439.225706   5056.604260 -22211.556016     75.332209
PR16   5332.231775  15052.598126 -19866.891390     29.583999
PR17 -22719.048693   5154.599493 -10316.350881    126.702721
PR18 -21440.300647  12457.868148   6084.325407    164.670068
PR19 -11340.910089  13477.723160  18447.167659   -293.244762
PR20  10401.851220   6587.452022  22347.236128   -119.815281
PR21  22559.215231  -4542.405030  11050.088576   -138.937700
PR22  21115.819748 -12385.835139  -7132.779011     33.523789
PR24 -11372.113375  -6204.572007 -21947.158243    -74.172740
PR25  23101.607335  -4401.274965   9923.897654    -96.129500
PR26   9303.887488 -16798.048640 -16785.330986     51.975781
EOF
